NORAD_CAT_ID,OBJECT_NAME,OBJECT_TYPE,EPOCH,MEAN_MOTION,ECCENTRICITY,INCLINATION,RA_OF_ASC_NODE,ARG_OF_PERICENTER,MEAN_ANOMALY,BSTAR,MEAN_MOTION_DOT,MEAN_MOTION_DDOT,TLE_LINE0,TLE_LINE1,TLE_LINE2,SEMIMAJOR_AXIS,PERIOD,APOGEE,PERIGEE,DECAYED
52380.0,STARLINK-3793,PAYLOAD,2022-12-20 16:26:09,15.08845597,0.000253,53.2182,53.914,26.7009,333.4113,0.00013005,1.782e-05,0.0,0 STARLINK-3793,1 52380U 22045BB  22354.68483282  .00001782  00000-0  13005-3 0  9998,2 52380  53.2182  53.9140 0002530  26.7009 333.4113 15.08845597 38671,6917.863,95.437,541.479,537.9780000000002,0.0
52380.0,STARLINK-3793,PAYLOAD,2022-12-21 13:06:11,15.08831601,0.000235,53.2188,50.0485,28.4288,331.6832,-0.00012137,-2.219e-05,0.0,0 STARLINK-3793,1 52380U 22045BB  22355.54596891 -.00002219  00000-0 -12137-3 0  9998,2 52380  53.2188  50.0485 0002350  28.4288 331.6832 15.08831601 38809,6917.906,95.438,541.3969999999998,538.145,0.0
52380.0,STARLINK-3793,PAYLOAD,2022-12-21 21:03:06,15.08840154,0.0002444,53.2189,48.562,26.3757,333.736,-0.00010096,-1.895e-05,0.0,0 STARLINK-3793,1 52380U 22045BB  22355.87716302 -.00001895  00000-0 -10096-3 0  9996,2 52380  53.2189  48.5620 0002444  26.3757 333.7360 15.08840154 38852,6917.88,95.438,541.436,538.054,0.0
52380.0,STARLINK-3793,PAYLOAD,2022-12-22 12:56:57,15.08846883,0.0002536,53.2189,45.5885,24.9889,335.1225,1.6327e-05,-2.9e-07,0.0,0 STARLINK-3793,1 52380U 22045BB  22356.53955347 -.00000029  00000-0  16327-4 0  9995,2 52380  53.2189  45.5885 0002536  24.9889 335.1225 15.08846883 38956,6917.859,95.437,541.479,537.97,0.0
52380.0,STARLINK-3793,PAYLOAD,2022-12-22 14:32:20,15.08846209,0.0002741,53.219,45.2912,25.0613,335.0512,2.1297e-05,5e-07,0.0,0 STARLINK-3793,1 52380U 22045BB  22356.60579399  .00000050  00000-0  21297-4 0  9997,2 52380  53.2190  45.2912 0002741  25.0613 335.0512 15.08846209 38962,6917.861,95.437,541.623,537.83,0.0
52380.0,STARLINK-3793,PAYLOAD,2022-12-23 03:15:26,15.08831569,0.0002476,53.2184,42.9115,28.0819,332.0306,5.2905e-05,5.54e-06,0.0,0 STARLINK-3793,1 52380U 22045BB  22357.13572344  .00000554  00000-0  52905-4 0  9998,2 52380  53.2184  42.9115 0002476  28.0819 332.0306 15.08831569 39041,6917.906,95.438,541.484,538.058,0.0
52380.0,STARLINK-3793,PAYLOAD,2022-12-23 09:36:59,15.0882617,0.0002583,53.2186,41.7226,26.3841,333.7282,0.00012164,1.647e-05,0.0,0 STARLINK-3793,1 52380U 22045BB  22357.40068592  .00001647  00000-0  12164-3 0  9999,2 52380  53.2186  41.7226 0002583  26.3841 333.7282 15.08826170 39085,6917.9230000000025,95.438,541.575,538.001,0.0
52380.0,STARLINK-3793,PAYLOAD,2022-12-23 14:23:09,15.08824233,0.0002607,53.2187,40.8305,26.7777,333.335,9.1742e-05,1.171e-05,0.0,0 STARLINK-3793,1 52380U 22045BB  22357.59940977  .00001171  00000-0  91742-4 0  9997,2 52380  53.2187  40.8305 0002607  26.7777 333.3350 15.08824233 39117,6917.929,95.439,541.597,537.99,0.0
52380.0,STARLINK-3793,PAYLOAD,2022-12-24 03:06:14,15.08831336,0.0002607,53.2186,38.4515,27.5167,332.5962,5.0545e-05,5.16e-06,0.0,0 STARLINK-3793,1 52380U 22045BB  22358.12933028  .00000516  00000-0  50545-4 0  9994,2 52380  53.2186  38.4515 0002607  27.5167 332.5962 15.08831336 39194,6917.906999999997,95.438,541.575,537.9680000000002,0.0
52380.0,STARLINK-3793,PAYLOAD,2022-12-24 12:38:32,15.08842287,0.0002666,53.2187,36.6673,28.8489,331.265,9.4063e-06,-1.39e-06,0.0,0 STARLINK-3793,1 52380U 22045BB  22358.52676515 -.00000139  00000-0  94063-5 0  9999,2 52380  53.2187  36.6673 0002666  28.8489 331.2650 15.08842287 39250,6917.873000000001,95.437,541.5830000000002,537.894,0.0
52380.0,STARLINK-3793,PAYLOAD,2022-12-25 09:18:33,15.08836414,0.0002722,53.218,32.8021,31.2689,328.8464,7.2903e-05,8.72e-06,0.0,0 STARLINK-3793,1 52380U 22045BB  22359.38788805  .00000872  00000-0  72903-4 0  9991,2 52380  53.2180  32.8021 0002722  31.2689 328.8464 15.08836414 39385,6917.891,95.438,541.639,537.873,0.0
52380.0,STARLINK-3793,PAYLOAD,2022-12-25 18:50:52,15.088367800000002,0.0002734,53.2193,31.0187,26.5553,333.5579,3.9588e-05,3.42e-06,0.0,0 STARLINK-3793,1 52380U 22045BB  22359.78532988  .00000342  00000-0  39588-4 0  9998,2 52380  53.2193  31.0187 0002734  26.5553 333.5579 15.08836780 39446,6917.89,95.438,541.6469999999998,537.864,0.0
52380.0,STARLINK-3793,PAYLOAD,2022-12-26 02:47:49,15.08806302,0.0002679,53.2203,29.5319,29.159,330.9552,0.00037446,5.671e-05,0.0,0 STARLINK-3793,1 52380U 22045BB  22360.11654346  .00005671  00000-0  37446-3 0  9990,2 52380  53.2203  29.5319 0002679  29.1590 330.9552 15.08806302 39499,6917.983,95.44,541.702,537.995,0.0
52380.0,STARLINK-3793,PAYLOAD,2022-12-26 12:20:07,15.08837304,0.000275,53.2198,27.7477,26.4801,333.6331,-3.0175e-05,-7.69e-06,0.0,0 STARLINK-3793,1 52380U 22045BB  22360.51397480 -.00000769  00000-0 -30175-4 0  9995,2 52380  53.2198  27.7477 0002750  26.4801 333.6331 15.08837304 39550,6917.889,95.438,541.656,537.851,0.0
52380.0,STARLINK-3793,PAYLOAD,2022-12-26 18:41:39,15.08840902,0.0002753,53.22,26.5586,24.9527,335.1598,7.260800000000001e-05,8.67e-06,0.0,0 STARLINK-3793,1 52380U 22045BB  22360.77892905  .00000867  00000-0  72608-4 0  9999,2 52380  53.2200  26.5586 0002753  24.9527 335.1598 15.08840902 39597,6917.878000000002,95.437,541.6469999999998,537.8380000000002,0.0
52380.0,STARLINK-3793,PAYLOAD,2022-12-27 09:00:07,15.08831521,0.0002715,53.2199,23.8823,28.8758,331.2384,0.00018338,2.631e-05,0.0,0 STARLINK-3793,1 52380U 22045BB  22361.37509085  .00002631  00000-0  18338-3 0  9990,2 52380  53.2199  23.8823 0002715  28.8758 331.2384 15.08831521 39682,6917.906,95.438,541.65,537.893,0.0
52380.0,STARLINK-3793,PAYLOAD,2022-12-28 00:53:57,15.08853874,0.0002867,53.2195,20.9085,30.0001,330.1155,0.0001476999999999,2.064e-05,0.0,0 STARLINK-3793,1 52380U 22045BB  22362.03747654  .00002064  00000-0  14770-3 0  9996,2 52380  53.2195  20.9085 0002867  30.0001 330.1155 15.08853874 39780,6917.8380000000025,95.437,541.686,537.72,0.0
52380.0,STARLINK-3793,PAYLOAD,2022-12-29 02:20:08,15.08843483,0.0002551,53.2215,16.1523,26.032,334.0801,4.7298e-05,4.64e-06,0.0,0 STARLINK-3793,1 52380U 22045BB  22363.09732594  .00000464  00000-0  47298-4 0  9994,2 52380  53.2215  16.1523 0002551  26.0320 334.0801 15.08843483 39940,6917.87,95.437,541.499,537.97,0.0
52380.0,STARLINK-3793,PAYLOAD,2022-12-29 18:14:01,15.08831935,0.0003085,53.2212,13.1785,29.6904,330.4263,-0.0001558,-2.767e-05,0.0,0 STARLINK-3793,1 52380U 22045BB  22363.75974312 -.00002767  00000-0 -15580-3 0  9991,2 52380  53.2212  13.1785 0003085  29.6904 330.4263 15.08831935 40048,6917.905,95.438,541.904,537.636,0.0
52380.0,STARLINK-3793,PAYLOAD,2022-12-30 00:35:33,15.08839285,0.0002345,53.2196,11.9854,16.714000000000002,343.3929,-9.7407e-05,-1.838e-05,0.0,0 STARLINK-3793,1 52380U 22045BB  22364.02469463 -.00001838  00000-0 -97407-4 0  9995,2 52380  53.2196  11.9854 0002345  16.7140 343.3929 15.08839285 40081,6917.8830000000025,95.438,541.37,538.125,0.0
52380.0,STARLINK-3793,PAYLOAD,2022-12-30 06:57:05,15.08845114,0.0002842999999999,53.2181,10.798,20.3753,339.7352,1.7613e-05,-8e-08,0.0,0 STARLINK-3793,1 52380U 22045BB  22364.28964751 -.00000008  00000-0  17613-4 0  9991,2 52380  53.2181  10.7980 0002843  20.3753 339.7352 15.08845114 40128,6917.865,95.437,541.697,537.763,0.0
52380.0,STARLINK-3793,PAYLOAD,2022-12-30 18:04:46,15.08847992,0.0002733,53.2195,8.7154,24.8733,335.2390000000001,0.0002115,3.08e-05,0.0,0 STARLINK-3793,1 52380U 22045BB  22364.75331854  .00003080  00000-0  21150-3 0  9997,2 52380  53.2195   8.7154 0002733  24.8733 335.2390 15.08847992 40194,6917.856,95.437,541.612,537.83,0.0
52380.0,STARLINK-3793,PAYLOAD,2022-12-31 09:58:37,15.08851368,0.0002936,53.2199,5.7443,24.0438,336.0691,0.00025776,3.818e-05,0.0,0 STARLINK-3793,1 52380U 22045BB  22365.41571375  .00003818  00000-0  25776-3 0  9992,2 52380  53.2199   5.7443 0002936  24.0438 336.0691 15.08851368 40291,6917.846,95.437,541.742,537.68,0.0
52380.0,STARLINK-3793,PAYLOAD,2023-01-01 06:38:39,15.08840916,0.0002816,53.2183,1.8752,31.4103,328.7057,1.6766e-05,-2.2e-07,0.0,0 STARLINK-3793,1 52380U 22045BB  23001.27684739 -.00000022  00000-0  16766-4 0  9998,2 52380  53.2183   1.8752 0002816  31.4103 328.7057 15.08840916 40428,6917.878000000002,95.437,541.691,537.795,0.0
52380.0,STARLINK-3793,PAYLOAD,2023-01-01 09:49:26,15.08836697,0.0002819999999999,53.2203,1.283,21.2388,338.872,-8.431700000000001e-05,-1.63e-05,0.0,0 STARLINK-3793,1 52380U 22045BB  23001.40933227 -.00001630  00000-0 -84317-4 0  9996,2 52380  53.2203   1.2830 0002820  21.2388 338.8720 15.08836697 40441,6917.89,95.438,541.706,537.805,0.0
52380.0,STARLINK-3793,PAYLOAD,2023-01-01 22:32:32,15.08830387,0.0002823,53.22,358.9038,24.1357,335.9767,-0.00019318,-3.361e-05,0.0,0 STARLINK-3793,1 52380U 22045BB  23001.93926117 -.00003361  00000-0 -19318-3 0  9995,2 52380  53.2200 358.9038 0002823  24.1357 335.9767 15.08830387 40529,6917.91,95.438,541.7280000000002,537.822,0.0
52380.0,STARLINK-3793,PAYLOAD,2023-01-02 00:07:55,15.08829904,0.0002951,53.2191,358.6074,24.4782,335.635,-0.00020624,-3.569e-05,0.0,0 STARLINK-3793,1 52380U 22045BB  23002.00550235 -.00003569  00000-0 -20624-3 0  9990,2 52380  53.2191 358.6074 0002951  24.4782 335.6350 15.08829904 40531,6917.911,95.438,541.818,537.735,0.0
52380.0,STARLINK-3793,PAYLOAD,2023-01-02 08:04:50,15.08840653,0.0002907999999999,53.2191,357.1199,27.0874,333.0269,-0.00010999,-2.039e-05,0.0,0 STARLINK-3793,1 52380U 22045BB  23002.33669319 -.00002039  00000-0 -10999-3 0  9995,2 52380  53.2191 357.1199 0002908  27.0874 333.0269 15.08840653 40586,6917.878000000002,95.438,541.755,537.732,0.0
52380.0,STARLINK-3793,PAYLOAD,2023-01-02 22:23:18,15.08827803,0.0002873,53.2191,354.4434,25.1977,334.9155,0.0001786999999999,2.556e-05,0.0,0 STARLINK-3793,1 52380U 22045BB  23002.93285365  .00002556  00000-0  17870-3 0  9993,2 52380  53.2191 354.4434 0002873  25.1977 334.9155 15.08827803 40678,6917.918000000002,95.438,541.77,537.795,0.0
